H1 CPF 01  gfz 2022 05 12 00  6313 terrasarx 
H2 0702601  6201 31698    2022 05 11 12 59 42 2022 05 16 00 00 42   120 1 1  0 0 0
H9
10 0 59711  76302.000000  0   -2545055.788   1583545.852   6191628.035
10 0 59711  76422.000000  0   -3024828.527   2239874.287   5759051.716
10 0 59711  76542.000000  0   -3440566.025   2864923.482   5225186.505
10 0 59711  76662.000000  0   -3785637.283   3446579.496   4599384.896
10 0 59711  76782.000000  0   -4054848.164   3973375.319   3892626.490
10 0 59711  76902.000000  0   -4244523.944   4434721.967   3117329.328
10 0 59711  77022.000000  0   -4352561.738   4821127.057   2287132.235
10 0 59711  77142.000000  0   -4378450.121   5124394.634   1416652.101
10 0 59711  77262.000000  0   -4323257.019   5337801.287    521221.790
10 0 59711  77382.000000  0   -4189586.195   5456245.127   -383386.479
10 0 59711  77502.000000  0   -3981501.635   5476364.158  -1281248.601
10 0 59711  77622.000000  0   -3704421.190   5396616.938  -2156579.776
10 0 59711  77742.000000  0   -3364982.932   5217326.405  -2994019.128
10 0 59711  77862.000000  0   -2970888.918   4940686.273  -3778904.761
10 0 59711  77982.000000  0   -2530730.634   4570728.521  -4497531.293
10 0 59711  78102.000000  0   -2053800.798   4113255.910  -5137385.361
10 0 59711  78222.000000  0   -1549897.153   3575742.993  -5687355.855
10 0 59711  78342.000000  0   -1029121.876   2967206.522  -6137918.808
10 0 59711  78462.000000  0    -501680.077   2298047.099  -6481292.052
10 0 59711  78582.000000  0      22317.556   1579867.715  -6711557.485
10 0 59711  78702.000000  0     533043.794    825272.542  -6824752.977
10 0 59711  78822.000000  0    1021134.769     47648.863  -6818933.889
10 0 59711  78942.000000  0    1477857.949   -739066.284  -6694202.526
10 0 59711  79062.000000  0    1895264.028  -1520629.925  -6452704.990
10 0 59711  79182.000000  0    2266322.472  -2282744.030  -6098598.469
10 0 59711  79302.000000  0    2585039.062  -3011311.046  -5637988.128
10 0 59711  79422.000000  0    2846554.176  -3692693.278  -5078833.906
10 0 59711  79542.000000  0    3047219.211  -4313969.786  -4430822.201
10 0 59711  79662.000000  0    3184648.255  -4863182.721  -3705207.790
10 0 59711  79782.000000  0    3257746.400  -5329572.912  -2914629.335
10 0 59711  79902.000000  0    3266712.753  -5703800.038  -2072895.706
10 0 59711  80022.000000  0    3213017.154  -5978138.158  -1194746.823
10 0 59711  80142.000000  0    3099350.910  -6146643.827   -295593.994
10 0 59711  80262.000000  0    2929551.095  -6205290.097    608756.694
10 0 59711  80382.000000  0    2708500.858  -6152062.786   1502388.898
10 0 59711  80502.000000  0    2442008.968  -5987018.021   2369565.953
10 0 59711  80622.000000  0    2136669.529  -5712295.152   3195017.512
10 0 59711  80742.000000  0    1799707.189  -5332087.921   3964214.501
10 0 59711  80862.000000  0    1438811.671  -4852576.100   4663629.159
10 0 59711  80982.000000  0    1061966.624  -4281817.827   5280974.696
10 0 59711  81102.000000  0     677275.556  -3629606.038   5805421.831
10 0 59711  81222.000000  0     292788.791  -2907289.984   6227784.894
10 0 59711  81342.000000  0     -83663.106  -2127570.369   6540675.604
10 0 59711  81462.000000  0    -444626.510  -1304272.014   6738625.538
10 0 59711  81582.000000  0    -783170.540   -452097.077   6818177.067
10 0 59711  81702.000000  0   -1093018.894    413638.814   6777940.673
10 0 59711  81822.000000  0   -1368665.677   1277281.786   6618617.434
10 0 59711  81942.000000  0   -1605472.892   2123121.923   6342987.361
10 0 59711  82062.000000  0   -1799748.935   2935678.563   5955864.154
10 0 59711  82182.000000  0   -1948806.523   3699984.541   5464015.799
10 0 59711  82302.000000  0   -2050998.920   4401864.497   4876052.905
10 0 59711  82422.000000  0   -2105734.851   5028203.898   4202284.365
10 0 59711  82542.000000  0   -2113470.454   5567202.000   3454540.953
10 0 59711  82662.000000  0   -2075679.063   6008603.108   2645969.192
10 0 59711  82782.000000  0   -1994798.997   6343900.238   1790799.323
10 0 59711  82902.000000  0   -1874160.011   6566507.352    904091.074
10 0 59711  83022.000000  0   -1717889.981   6671894.685      1462.405
10 0 59711  83142.000000  0   -1530805.021   6657684.075   -901193.351
10 0 59711  83262.000000  0   -1318284.974   6523702.112  -1787998.028
10 0 59711  83382.000000  0   -1086136.725   6271984.088  -2643378.711
10 0 59711  83502.000000  0    -840451.265   5906733.025  -3452345.794
10 0 59711  83622.000000  0    -587457.500   5434239.011  -4200756.739
10 0 59711  83742.000000  0    -333376.457   4862759.058  -4875562.397
10 0 59711  83862.000000  0     -84278.928   4202361.005  -5465029.503
10 0 59711  83982.000000  0     154050.493   3464735.939  -5958937.522
10 0 59711  84102.000000  0     376239.563   2662982.233  -6348746.026
10 0 59711  84222.000000  0     577441.658   1811367.772  -6627730.357
10 0 59711  84342.000000  0     753435.373    925075.966  -6791086.892
10 0 59711  84462.000000  0     900708.285     19937.587  -6836007.210
10 0 59711  84582.000000  0    1016523.821   -887847.113  -6761721.026
10 0 59711  84702.000000  0    1098970.191  -1781991.719  -6569506.251
10 0 59711  84822.000000  0    1146991.241  -2646407.174  -6262668.917
10 0 59711  84942.000000  0    1160399.569  -3465484.977  -5846494.665
10 0 59711  85062.000000  0    1139869.703  -4224377.960  -5328167.641
10 0 59711  85182.000000  0    1086912.909  -4909269.867  -4716656.118
10 0 59711  85302.000000  0    1003833.867  -5507630.796  -4022569.223
10 0 59711  85422.000000  0     893668.664  -6008455.036  -3257982.850
10 0 59711  85542.000000  0     760105.916  -6402473.992  -2436236.792
10 0 59711  85662.000000  0     607392.755  -6682340.282  -1571706.402
10 0 59711  85782.000000  0     440227.000  -6842777.550   -679550.745
10 0 59711  85902.000000  0     263637.925  -6880690.186    224557.167
10 0 59711  86022.000000  0      82858.895  -6795230.742   1124711.703
10 0 59711  86142.000000  0     -96804.962  -6587823.381   2005062.550
10 0 59711  86262.000000  0    -270110.832  -6262141.349   2850103.673
10 0 59711  86382.000000  0    -432010.248  -5824037.335   3644956.145
10 0 59712    102.000000  0    -577775.825  -5281428.994   4375635.032
10 0 59712    222.000000  0    -703119.716  -4644147.423   5029298.031
10 0 59712    342.000000  0    -804300.320  -3923749.102   5594471.306
10 0 59712    462.000000  0    -878215.378  -3133296.758   6061249.476
10 0 59712    582.000000  0    -922479.250  -2287112.468   6421463.997
10 0 59712    702.000000  0    -935482.620  -1400512.892   6668818.022
10 0 59712    822.000000  0    -916434.404   -489530.127   6798991.139
10 0 59712    942.000000  0    -865385.720    429379.587   6809710.847
10 0 59712   1062.000000  0    -783233.811   1339632.949   6700789.838
10 0 59712   1182.000000  0    -671705.826   2224818.407   6474129.060
10 0 59712   1302.000000  0    -533323.516   3068991.621   6133686.544
10 0 59712   1422.000000  0    -371349.607   3856963.495   5685412.792
10 0 59712   1542.000000  0    -189716.657   4574576.501   5137151.933
10 0 59712   1662.000000  0       7060.926   5208964.265   4498511.292
10 0 59712   1782.000000  0     213990.088   5748791.201   3780697.123
10 0 59712   1902.000000  0     425714.679   6184461.093   2996321.870
10 0 59712   2022.000000  0     636641.530   6508302.820   2159186.610
10 0 59712   2142.000000  0     841076.037   6714715.357   1284030.955
10 0 59712   2262.000000  0    1033360.405   6800270.309    386267.960
10 0 59712   2382.000000  0    1208013.650   6763771.898   -518295.076
10 0 59712   2502.000000  0    1359868.226   6606272.039  -1413743.540
10 0 59712   2622.000000  0    1484199.797   6331040.648  -2284343.118
10 0 59712   2742.000000  0    1576847.539   5943492.530  -3114822.962
10 0 59712   2862.000000  0    1634321.901   5451071.990  -3890648.289
10 0 59712   2982.000000  0    1653897.477   4863098.362  -4598276.202
10 0 59712   3102.000000  0    1633688.585   4190577.061  -5225388.982
10 0 59712   3222.000000  0    1572705.993   3445983.151  -5761101.202
10 0 59712   3342.000000  0    1470894.290   2643022.000  -6196139.845
10 0 59712   3462.000000  0    1329148.542   1796371.385  -6522993.189
10 0 59712   3582.000000  0    1149311.477    921413.021  -6736028.794
10 0 59712   3702.000000  0     934150.920     33955.685  -6831581.708
10 0 59712   3822.000000  0     687317.395   -850045.892  -6808010.274
10 0 59712   3942.000000  0     413282.826  -1714771.368  -6665719.733
10 0 59712   4062.000000  0     117262.093  -2544809.326  -6407155.452
10 0 59712   4182.000000  0    -194882.838  -3325426.084  -6036767.790
10 0 59712   4302.000000  0    -516755.067  -4042825.140  -5560943.107
10 0 59712   4422.000000  0    -841548.132  -4684390.640  -4987904.124
10 0 59712   4542.000000  0   -1162184.225  -5238913.647  -4327579.761
10 0 59712   4662.000000  0   -1471462.931  -5696795.918  -3591443.726
10 0 59712   4782.000000  0   -1762217.019  -6050226.210  -2792323.570
10 0 59712   4902.000000  0   -2027472.097  -6293325.231  -1944183.119
10 0 59712   5022.000000  0   -2260606.618  -6422255.927  -1061880.504
10 0 59712   5142.000000  0   -2455508.070  -6435294.857   -160905.401
10 0 59712   5262.000000  0   -2606721.509  -6332861.157    742898.986
10 0 59712   5382.000000  0   -2709586.133  -6117502.096   1633622.538
10 0 59712   5502.000000  0   -2760356.314  -5793835.561   2495577.494
10 0 59712   5622.000000  0   -2756303.729  -5368450.426   3313583.512
10 0 59712   5742.000000  0   -2695797.695  -4849767.959   4073241.879
10 0 59712   5862.000000  0   -2578362.289  -4247868.389   4761193.084
10 0 59712   5982.000000  0   -2404709.818  -3574287.306   5365353.433
10 0 59712   6102.000000  0   -2176748.675  -2841785.567   5875126.351
10 0 59712   6222.000000  0   -1897565.475  -2064100.394   6281583.535
10 0 59712   6342.000000  0   -1571382.876  -1255683.522   6577616.349
99
